[{"OBJECT_NAME":"IRIDE FM4","OBJECT_ID":"2025-276AJ","EPOCH":"2026-03-09T18:15:25.902144","MEAN_MOTION":15.18565498,"ECCENTRICITY":0.00038717,"INCLINATION":97.4251,"RA_OF_ASC_NODE":143.9634,"ARG_OF_PERICENTER":14.8227,"MEAN_ANOMALY":345.312,"EPHEMERIS_TYPE":0,"CLASSIFICATION_TYPE":"U","NORAD_CAT_ID":66698,"ELEMENT_SET_NO":999,"REV_AT_EPOCH":1532,"BSTAR":0.00040962918,"MEAN_MOTION_DOT":8.403e-5,"MEAN_MOTION_DDOT":0},{"OBJECT_NAME":"CZ-6A DEB","OBJECT_ID":"2024-140LQ","EPOCH":"2026-03-09T12:39:56.979648","MEAN_MOTION":14.85929139,"ECCENTRICITY":0.01771612,"INCLINATION":88.9207,"RA_OF_ASC_NODE":273.583,"ARG_OF_PERICENTER":149.2711,"MEAN_ANOMALY":211.9037,"EPHEMERIS_TYPE":0,"CLASSIFICATION_TYPE":"U","NORAD_CAT_ID":60965,"ELEMENT_SET_NO":999,"REV_AT_EPOCH":8358,"BSTAR":0.00081105729,"MEAN_MOTION_DOT":9.447e-5,"MEAN_MOTION_DDOT":0}]
